NORAD_CAT_ID,OBJECT_NAME,OBJECT_TYPE,EPOCH,MEAN_MOTION,ECCENTRICITY,INCLINATION,RA_OF_ASC_NODE,ARG_OF_PERICENTER,MEAN_ANOMALY,BSTAR,MEAN_MOTION_DOT,MEAN_MOTION_DDOT,TLE_LINE0,TLE_LINE1,TLE_LINE2,SEMIMAJOR_AXIS,PERIOD,APOGEE,PERIGEE,DECAYED
52584.0,STARLINK-3922,PAYLOAD,2024-08-04 16:37:21,15.08845736,0.0001289,53.2157,211.808,91.796,268.318,0.00017062,2.429e-05,0.0,0 STARLINK-3922,1 52584U 22051BA  24217.69261140  .00002429  00000-0  17062-3 0  9995,2 52584  53.2157 211.8080 0001289  91.7960 268.3180 15.08845736123798,6917.863,95.437,540.62,538.836,0.0
52584.0,STARLINK-3922,PAYLOAD,2024-08-05 05:20:27,15.08834199,0.0001489,53.2156,209.4291,90.2256,269.8907,-2.2014e-06,-3.23e-06,0.0,0 STARLINK-3922,1 52584U 22051BA  24218.22254573 -.00000323  00000-0 -22014-5 0  9995,2 52584  53.2156 209.4291 0001489  90.2256 269.8907 15.08834199123871,6917.898,95.438,540.793,538.733,0.0
52584.0,STARLINK-3922,PAYLOAD,2024-08-05 16:28:09,15.08842708,0.0001503,53.2159,207.3473,85.227,274.8894,5.3114e-05,5.57e-06,0.0,0 STARLINK-3922,1 52584U 22051BA  24218.68621911  .00000557  00000-0  53114-4 0  9990,2 52584  53.2159 207.3473 0001503  85.2270 274.8894 15.08842708123944,6917.872,95.437,540.777,538.697,0.0
52584.0,STARLINK-3922,PAYLOAD,2024-08-06 05:11:15,15.0883467,0.0001605,53.2168,204.9683,83.6607,276.4568,4.4812e-07,-2.81e-06,0.0,0 STARLINK-3922,1 52584U 22051BA  24219.21614746 -.00000281  00000-0  44812-6 0  9990,2 52584  53.2168 204.9683 0001605  83.6607 276.4568 15.08834670124024,6917.897,95.438,540.872,538.651,0.0
52584.0,STARLINK-3922,PAYLOAD,2024-08-06 08:22:01,15.0883814,0.0001588,53.2167,204.3729,82.6157,277.5016,2.3628e-05,8.8e-07,0.0,0 STARLINK-3922,1 52584U 22051BA  24219.34862505  .00000088  00000-0  23628-4 0  9996,2 52584  53.2167 204.3729 0001588  82.6157 277.5016 15.08838140124045,6917.886,95.438,540.85,538.653,0.0
52584.0,STARLINK-3922,PAYLOAD,2024-08-06 16:18:56,15.08842266,0.0001667,53.2175,202.8878,84.5243,275.594,9.9877e-05,1.302e-05,0.0,0 STARLINK-3922,1 52584U 22051BA  24219.67982142  .00001302  00000-0  99877-4 0  9991,2 52584  53.2175 202.8878 0001667  84.5243 275.5940 15.08842266124090,6917.873,95.437,540.892,538.585,0.0
52584.0,STARLINK-3922,PAYLOAD,2024-08-08 08:03:34,15.08843159,0.0001425,53.2158,195.4522,92.009,268.1065,9.9603e-05,1.298e-05,0.0,0 STARLINK-3922,1 52584U 22051BA  24221.33582086  .00001298  00000-0  99603-4 0  9991,2 52584  53.2158 195.4522 0001425  92.0090 268.1065 15.08843159124278,6917.871,95.437,540.722,538.75,0.0
52584.0,STARLINK-3922,PAYLOAD,2024-08-09 04:43:35,15.08846922,0.0001361,53.2157,191.5848,105.2245,254.8897,3.8953e-05,3.32e-06,0.0,0 STARLINK-3922,1 52584U 22051BA  24222.19693704  .00000332  00000-0  38953-4 0  9995,2 52584  53.2157 191.5848 0001361 105.2245 254.8897 15.08846922124471,6917.859,95.437,540.666,538.783,0.0
52584.0,STARLINK-3922,PAYLOAD,2024-08-09 07:54:21,15.08847637,0.0001352,53.2157,190.9896,105.0532,255.061,4.1274e-05,3.69e-06,0.0,0 STARLINK-3922,1 52584U 22051BA  24222.32941577  .00000369  00000-0  41274-4 0  9994,2 52584  53.2157 190.9896 0001352 105.0532 255.0610 15.08847637124496,6917.857,95.437,540.657,538.787,0.0
52584.0,STARLINK-3922,PAYLOAD,2024-08-10 04:34:23,15.08833881,0.0001309,53.2162,187.1225,105.5004,254.6133,3.6778e-05,2.97e-06,0.0,0 STARLINK-3922,1 52584U 22051BA  24223.19054402  .00000297  00000-0  36778-4 0  9995,2 52584  53.2162 187.1225 0001309 105.5004 254.6133 15.08833881124623,6917.899,95.438,540.67,538.859,0.0
52584.0,STARLINK-3922,PAYLOAD,2024-08-11 02:49:46,15.08843522,0.0001322,53.2158,182.9594,105.1301,254.9837,8.325e-05,1.037e-05,0.0,0 STARLINK-3922,1 52584U 22051BA  24224.11789886  .00001037  00000-0  83250-4 0  9999,2 52584  53.2158 182.9594 0001322 105.1301 254.9837 15.08843522124763,6917.87,95.437,540.649,538.82,0.0
52584.0,STARLINK-3922,PAYLOAD,2024-08-11 04:25:09,15.08847109,0.0001341,53.2163,182.6661,98.2838,261.8306,0.00010185,1.334e-05,0.0,0 STARLINK-3922,1 52584U 22051BA  24224.18413774  .00001334  00000-0  10185-3 0  9992,2 52584  53.2163 182.6661 0001341  98.2838 261.8306 15.08847109124773,6917.859,95.437,540.651,538.796,0.0
52584.0,STARLINK-3922,PAYLOAD,2024-08-11 13:57:26,15.0886287,0.0001293,53.2166,180.8799,93.4206,266.6934,0.00020693,3.009e-05,0.0,0 STARLINK-3922,1 52584U 22051BA  24224.58156155  .00003009  00000-0  20693-3 0  9999,2 52584  53.2166 180.8799 0001293  93.4206 266.6934 15.08862870124839,6917.81,95.436,540.57,538.781,0.0
52584.0,STARLINK-3922,PAYLOAD,2024-08-11 21:54:25,15.08818757,0.0001491,53.2167,179.3953,86.3111,273.8051,-3.8696e-05,-9.03e-06,0.0,0 STARLINK-3922,1 52584U 22051BA  24224.91279930 -.00000903  00000-0 -38696-4 0  9998,2 52584  53.2167 179.3953 0001491  86.3111 273.8051 15.08818757124814,6917.945,95.439,540.842,538.779,0.0
52584.0,STARLINK-3922,PAYLOAD,2024-08-12 04:15:57,15.08836347,0.0001392,53.2155,178.2086,95.0393,265.0758,3.1366e-05,2.11e-06,0.0,0 STARLINK-3922,1 52584U 22051BA  24225.17774419  .00000211  00000-0  31366-4 0  9996,2 52584  53.2155 178.2086 0001392  95.0393 265.0758 15.08836347124929,6917.892,95.438,540.72,538.794,0.0
52584.0,STARLINK-3922,PAYLOAD,2024-08-12 07:26:42,15.0884495,0.0001269,53.2151,177.6092,88.3059,271.8078,0.00014481,2.018e-05,0.0,0 STARLINK-3922,1 52584U 22051BA  24225.31021898  .00002018  00000-0  14481-3 0  9993,2 52584  53.2151 177.6092 0001269  88.3059 271.8078 15.08844950124943,6917.865,95.437,540.608,538.852,0.0
52584.0,STARLINK-3922,PAYLOAD,2024-08-12 13:48:14,15.08861351,0.000144,53.2159,176.422,89.9144,270.2013,0.0003649,5.528e-05,0.0,0 STARLINK-3922,1 52584U 22051BA  24225.57516946  .00005528  00000-0  36490-3 0  9997,2 52584  53.2159 176.4220 0001440  89.9144 270.2013 15.08861351124917,6917.815,95.436,540.676,538.684,0.0
52584.0,STARLINK-3922,PAYLOAD,2024-08-12 20:09:47,15.08866959,0.0003059,53.2165,175.232,88.4584,271.6759,0.00034009,5.132e-05,0.0,0 STARLINK-3922,1 52584U 22051BA  24225.84013235  .00005132  00000-0  34009-3 0  9995,2 52584  53.2165 175.2320 0003059  88.4584 271.6759 15.08866959125026,6917.798,95.436,541.779,537.547,0.0
52584.0,STARLINK-3922,PAYLOAD,2024-08-13 04:06:45,15.08790187,0.0001633,53.216,173.7421,79.1852,280.9324,-0.0010321,-0.00016654,0.0,0 STARLINK-3922,1 52584U 22051BA  24226.17135939 -.00016654  00000-0 -10321-2 0  9991,2 52584  53.2160 173.7421 0001633  79.1852 280.9324 15.08790187125072,6918.033,95.441,541.027,538.768,0.0
52584.0,STARLINK-3922,PAYLOAD,2024-08-13 05:42:08,15.08790774,0.0001577,53.2155,173.4456,92.4675,267.6498,-0.00097274,-0.00015715,0.0,0 STARLINK-3922,1 52584U 22051BA  24226.23760072 -.00015715  00000-0 -97274-3 0  9990,2 52584  53.2155 173.4456 0001577  92.4675 267.6498 15.08790774125086,6918.031,95.441,540.987,538.805,0.0
52584.0,STARLINK-3922,PAYLOAD,2024-08-13 13:39:04,15.08791126,0.0001415,53.2144,171.9593,104.2677,255.8472,-0.00078365,-0.00012721,0.0,0 STARLINK-3922,1 52584U 22051BA  24226.56880536 -.00012721  00000-0 -78365-3 0  9998,2 52584  53.2144 171.9593 0001415 104.2677 255.8472 15.08791126125065,6918.03,95.441,540.874,538.916,0.0
52584.0,STARLINK-3922,PAYLOAD,2024-08-14 03:57:33,15.08823187,0.0001396,53.214,169.2875,93.2697,266.8455,0.00066195,0.00010258,0.0,0 STARLINK-3922,1 52584U 22051BA  24227.16497040  .00010258  00000-0  66195-3 0  9998,2 52584  53.2140 169.2875 0001396  93.2697 266.8455 15.08823187125225,6917.932,95.439,540.763,538.831,0.0
52584.0,STARLINK-3922,PAYLOAD,2024-08-14 05:32:56,15.08830678,0.0001513,53.2143,168.9881,95.3105,264.8059,0.00089821,0.00014032,0.0,0 STARLINK-3922,1 52584U 22051BA  24227.23121002  .00014032  00000-0  89821-3 0  9993,2 52584  53.2143 168.9881 0001513  95.3105 264.8059 15.08830678125231,6917.909,95.438,540.821,538.727,0.0
52584.0,STARLINK-3922,PAYLOAD,2024-08-14 13:29:52,15.0884708,0.0001337,53.2141,167.5006,98.1836,261.9307,0.0013434,0.00021161,0.0,0 STARLINK-3922,1 52584U 22051BA  24227.56241076  .00021161  00000-0  13434-2 0  9990,2 52584  53.2141 167.5006 0001337  98.1836 261.9307 15.08847080125216,6917.859,95.437,540.649,538.799,0.0
52584.0,STARLINK-3922,PAYLOAD,2024-08-14 23:02:10,15.08861713,0.0001359,53.2141,165.7164,98.9718,261.1428,0.00098184,0.00015382,0.0,0 STARLINK-3922,1 52584U 22051BA  24227.95984561  .00015382  00000-0  98184-3 0  9990,2 52584  53.2141 165.7164 0001359  98.9718 261.1428 15.08861713125273,6917.814,95.436,540.619,538.739,0.0
52584.0,STARLINK-3922,PAYLOAD,2024-08-15 02:12:56,15.08869593,0.0001348,53.2141,165.1221,98.8117,261.3028,0.0011118,0.00017465,0.0,0 STARLINK-3922,1 52584U 22051BA  24228.09232257  .00017465  00000-0  11118-2 0  9999,2 52584  53.2141 165.1221 0001348  98.8117 261.3028 15.08869593125363,6917.79,95.436,540.587,538.722,0.0
52584.0,STARLINK-3922,PAYLOAD,2024-08-15 13:20:37,15.08884685,0.0001314,53.2151,163.0373,110.2494,249.864,0.0010351,0.00016244,0.0,0 STARLINK-3922,1 52584U 22051BA  24228.55598956  .00016244  00000-0  10351-2 0  9993,2 52584  53.2151 163.0373 0001314 110.2494 249.8640 15.08884685125369,6917.744,95.435,540.518,538.7,0.0
52584.0,STARLINK-3922,PAYLOAD,2024-08-15 22:52:56,15.08852952,0.000138,53.2143,161.2557,88.9858,271.1292,-0.00017632,-3.094e-05,0.0,0 STARLINK-3922,1 52584U 22051BA  24228.95342996 -.00003094  00000-0 -17632-3 0  9999,2 52584  53.2143 161.2557 0001380  88.9858 271.1292 15.08852952125422,6917.841,95.437,540.66,538.751,0.0
52584.0,STARLINK-3922,PAYLOAD,2024-08-16 02:03:42,15.08854017,0.0001385,53.2146,160.661,86.2775,273.8376,4.4414e-05,4.19e-06,0.0,0 STARLINK-3922,1 52584U 22051BA  24229.08590899  .00000419  00000-0  44414-4 0  9996,2 52584  53.2146 160.6610 0001385  86.2775 273.8376 15.08854017125518,6917.838,95.437,540.661,538.744,0.0
52584.0,STARLINK-3922,PAYLOAD,2024-08-16 19:32:57,15.08849159,0.0001488,53.2151,157.3896,86.6709,273.4453,0.00071607,0.00011129,0.0,0 STARLINK-3922,1 52584U 22051BA  24229.81455160  .00011129  00000-0  71607-3 0  9991,2 52584  53.2151 157.3896 0001488  86.6709 273.4453 15.08849159125623,6917.852,95.437,540.747,538.688,0.0
